{"type": "FeatureCollection", "features": [ {"type": "Feature", "properties": {"norad_id": 58662, "name": "TIANMU-1 21", "group": "weather", "lat": 37.43680434691599, "lon": -77.25773458487522, "alt_km": 471.54539036533515, "timestamp": "2025-12-09T14:52:25.809384+00:00", "meta": {"OBJECT_NAME": "TIANMU-1 21", "OBJECT_ID": "2023-208C", "EPOCH": "2025-12-09T06:24:50.628960", "MEAN_MOTION": 15.31434426, "ECCENTRICITY": 0.00058948, "INCLINATION": 97.4377, "RA_OF_ASC_NODE": 96.6487, "ARG_OF_PERICENTER": 274.8308, "MEAN_ANOMALY": 85.2261, "EPHEMERIS_TYPE": 0, "CLASSIFICATION_TYPE": "U", "NORAD_CAT_ID": 58662, "ELEMENT_SET_NO": 999, "REV_AT_EPOCH": 10846, "BSTAR": 0.00050332589, "MEAN_MOTION_DOT": 0.00015223, "MEAN_MOTION_DDOT": 0}, "tle": {"line1": "1 58662U 23208C   25343.26725265  .00015223  00000+0  50333-3 0  9993", "line2": "2 58662  97.4377  96.6487 0005894 274.8308  85.2261 15.31434426108460"}}, "geometry": {"type": "Point", "coordinates": [-77.25773458487522, 37.43680434691599]}}, {"type": "Feature", "properties": {"norad_id": 58663, "name": "TIANMU-1 22", "group": "weather", "lat": 70.0238626175734, "lon": -64.21137061202343, "alt_km": 478.3281199559924, "timestamp": "2025-12-09T14:52:25.809400+00:00", "meta": {"OBJECT_NAME": "TIANMU-1 22", "OBJECT_ID": "2023-208D", "EPOCH": "2025-12-09T06:32:21.369984", "MEAN_MOTION": 15.27511126, "ECCENTRICITY": 0.00027967, "INCLINATION": 97.4384, "RA_OF_ASC_NODE": 94.3774, "ARG_OF_PERICENTER": 304.218, "MEAN_ANOMALY": 55.8794, "EPHEMERIS_TYPE": 0, "CLASSIFICATION_TYPE": "U", "NORAD_CAT_ID": 58663, "ELEMENT_SET_NO": 999, "REV_AT_EPOCH": 10830, "BSTAR": 0.00044316626, "MEAN_MOTION_DOT": 0.00011861, "MEAN_MOTION_DDOT": 0}, "tle": {"line1": "1 58663U 23208D   25343.27246956  .00011861  00000+0  44317-3 0  9999", "line2": "2 58663  97.4384  94.3774 0002796 304.2180  55.8794 15.27511126108302"}}, "geometry": {"type": "Point", "coordinates": [-64.21137061202343, 70.0238626175734]}}, {"type": "Feature", "properties": {"norad_id": 58700, "name": "TIANMU-1 15", "group": "weather", "lat": -82.50697515581093, "lon": -109.59404868136389, "alt_km": 496.55218248442, "timestamp": "2025-12-09T14:52:25.809417+00:00", "meta": {"OBJECT_NAME": "TIANMU-1 15", "OBJECT_ID": "2024-004A", "EPOCH": "2025-12-09T07:23:21.175872", "MEAN_MOTION": 15.24608668, "ECCENTRICITY": 0.00053444, "INCLINATION": 97.463, "RA_OF_ASC_NODE": 164.7901, "ARG_OF_PERICENTER": 313.019, "MEAN_ANOMALY": 47.0599, "EPHEMERIS_TYPE": 0, "CLASSIFICATION_TYPE": "U", "NORAD_CAT_ID": 58700, "ELEMENT_SET_NO": 999, "REV_AT_EPOCH": 10682, "BSTAR": 0.0004010005, "MEAN_MOTION_DOT": 9.826e-05, "MEAN_MOTION_DDOT": 0}, "tle": {"line1": "1 58700U 24004A   25343.30788398  .00009826  00000+0  40100-3 0  9995", "line2": "2 58700  97.4630 164.7901 0005344 313.0190  47.0599 15.24608668106829"}}, "geometry": {"type": "Point", "coordinates": [-109.59404868136389, -82.50697515581093]}}, {"type": "Feature", "properties": {"norad_id": 58701, "name": "TIANMU-1 16", "group": "weather", "lat": -4.792427361246359, "lon": 165.12206862214356, "alt_km": 494.1175140886444, "timestamp": "2025-12-09T14:52:25.809434+00:00", "meta": {"OBJECT_NAME": "TIANMU-1 16", "OBJECT_ID": "2024-004B", "EPOCH": "2025-12-09T07:01:04.045152", "MEAN_MOTION": 15.24360237, "ECCENTRICITY": 0.00046529, "INCLINATION": 97.4569, "RA_OF_ASC_NODE": 164.1672, "ARG_OF_PERICENTER": 311.6172, "MEAN_ANOMALY": 48.4666, "EPHEMERIS_TYPE": 0, "CLASSIFICATION_TYPE": "U", "NORAD_CAT_ID": 58701, "ELEMENT_SET_NO": 999, "REV_AT_EPOCH": 10682, "BSTAR": 0.00039085893, "MEAN_MOTION_DOT": 9.503e-05, "MEAN_MOTION_DDOT": 0}, "tle": {"line1": "1 58701U 24004B   25343.29240793  .00009503  00000+0  39086-3 0  9999", "line2": "2 58701  97.4569 164.1672 0004652 311.6172  48.4666 15.24360237106822"}}, "geometry": {"type": "Point", "coordinates": [165.12206862214356, -4.792427361246359]}}, {"type": "Feature", "properties": {"norad_id": 58702, "name": "TIANMU-1 17", "group": "weather", "lat": 76.9479295938623, "lon": 130.48122621385696, "alt_km": 486.85798120153413, "timestamp": "2025-12-09T14:52:25.809450+00:00", "meta": {"OBJECT_NAME": "TIANMU-1 17", "OBJECT_ID": "2024-004C", "EPOCH": "2025-12-09T06:39:01.744992", "MEAN_MOTION": 15.24403411, "ECCENTRICITY": 0.000387, "INCLINATION": 97.4604, "RA_OF_ASC_NODE": 164.5603, "ARG_OF_PERICENTER": 315.3948, "MEAN_ANOMALY": 44.6978, "EPHEMERIS_TYPE": 0, "CLASSIFICATION_TYPE": "U", "NORAD_CAT_ID": 58702, "ELEMENT_SET_NO": 999, "REV_AT_EPOCH": 10681, "BSTAR": 0.00036369984, "MEAN_MOTION_DOT": 8.848e-05, "MEAN_MOTION_DDOT": 0}, "tle": {"line1": "1 58702U 24004C   25343.27710353  .00008848  00000+0  36370-3 0  9996", "line2": "2 58702  97.4604 164.5603 0003870 315.3948  44.6978 15.24403411106819"}}, "geometry": {"type": "Point", "coordinates": [130.48122621385696, 76.9479295938623]}}, {"type": "Feature", "properties": {"norad_id": 58703, "name": "TIANMU-1 18", "group": "weather", "lat": 8.927363741175787, "lon": -13.724189761880227, "alt_km": 496.25362555294487, "timestamp": "2025-12-09T14:52:25.809472+00:00", "meta": {"OBJECT_NAME": "TIANMU-1 18", "OBJECT_ID": "2024-004D", "EPOCH": "2025-12-09T07:49:29.260704", "MEAN_MOTION": 15.24394627, "ECCENTRICITY": 0.00032346, "INCLINATION": 97.4621, "RA_OF_ASC_NODE": 164.8036, "ARG_OF_PERICENTER": 316.461, "MEAN_ANOMALY": 43.6372, "EPHEMERIS_TYPE": 0, "CLASSIFICATION_TYPE": "U", "NORAD_CAT_ID": 58703, "ELEMENT_SET_NO": 999, "REV_AT_EPOCH": 10682, "BSTAR": 0.00040695163, "MEAN_MOTION_DOT": 9.907e-05, "MEAN_MOTION_DDOT": 0}, "tle": {"line1": "1 58703U 24004D   25343.32603311  .00009907  00000+0  40695-3 0  9990", "line2": "2 58703  97.4621 164.8036 0003234 316.4610  43.6372 15.24394627106820"}}, "geometry": {"type": "Point", "coordinates": [-13.724189761880227, 8.927363741175787]}}, {"type": "Feature", "properties": {"norad_id": 58990, "name": "INSAT-3DS", "group": "weather", "lat": 0.0002004921332512656, "lon": 23.806489130756646, "alt_km": 35790.13160090896, "timestamp": "2025-12-09T14:52:25.809492+00:00", "meta": {"OBJECT_NAME": "INSAT-3DS", "OBJECT_ID": "2024-033A", "EPOCH": "2025-12-09T03:41:28.376160", "MEAN_MOTION": 1.00269594, "ECCENTRICITY": 0.00016503, "INCLINATION": 0.019, "RA_OF_ASC_NODE": 85.8021, "ARG_OF_PERICENTER": 178.7722, "MEAN_ANOMALY": 311.024, "EPHEMERIS_TYPE": 0, "CLASSIFICATION_TYPE": "U", "NORAD_CAT_ID": 58990, "ELEMENT_SET_NO": 999, "REV_AT_EPOCH": 4516, "BSTAR": 0, "MEAN_MOTION_DOT": -1.53e-06, "MEAN_MOTION_DDOT": 0}, "tle": {"line1": "1 58990U 24033A   25343.15380065 -.00000153  00000+0  00000+0 0  9996", "line2": "2 58990   0.0190  85.8021 0001650 178.7722 311.0240  1.00269594 45166"}}, "geometry": {"type": "Point", "coordinates": [23.806489130756646, 0.0002004921332512656]}}, {"type": "Feature", "properties": {"norad_id": 59051, "name": "METEOR-M2 4", "group": "weather", "lat": 48.938305613394654, "lon": -69.51675916951177, "alt_km": 808.9352235824645, "timestamp": "2025-12-09T14:52:25.809513+00:00", "meta": {"OBJECT_NAME": "METEOR-M2 4", "OBJECT_ID": "2024-039A", "EPOCH": "2025-12-09T07:53:17.889792", "MEAN_MOTION": 14.22400489, "ECCENTRICITY": 0.0007235, "INCLINATION": 98.6761, "RA_OF_ASC_NODE": 300.2912, "ARG_OF_PERICENTER": 8.2967, "MEAN_ANOMALY": 351.8329, "EPHEMERIS_TYPE": 0, "CLASSIFICATION_TYPE": "U", "NORAD_CAT_ID": 59051, "ELEMENT_SET_NO": 999, "REV_AT_EPOCH": 9227, "BSTAR": 6.4406306e-05, "MEAN_MOTION_DOT": 1e-06, "MEAN_MOTION_DDOT": 0}, "tle": {"line1": "1 59051U 24039A   25343.32867928  .00000100  00000+0  64406-4 0  9994", "line2": "2 59051  98.6761 300.2912 0007235   8.2967 351.8329 14.22400489 92270"}}, "geometry": {"type": "Point", "coordinates": [-69.51675916951177, 48.938305613394654]}}, {"type": "Feature", "properties": {"norad_id": 60133, "name": "GOES 19", "group": "weather", "lat": -0.012935104775147971, "lon": -133.4850511953088, "alt_km": 35785.03902316557, "timestamp": "2025-12-09T14:52:25.809532+00:00", "meta": {"OBJECT_NAME": "GOES 19", "OBJECT_ID": "2024-119A", "EPOCH": "2025-12-09T06:14:31.267104", "MEAN_MOTION": 1.00271382, "ECCENTRICITY": 0.00013608, "INCLINATION": 0.0318, "RA_OF_ASC_NODE": 187.6725, "ARG_OF_PERICENTER": 117.0797, "MEAN_ANOMALY": 151.9501, "EPHEMERIS_TYPE": 0, "CLASSIFICATION_TYPE": "U", "NORAD_CAT_ID": 60133, "ELEMENT_SET_NO": 999, "REV_AT_EPOCH": 506, "BSTAR": 0, "MEAN_MOTION_DOT": -2.46e-06, "MEAN_MOTION_DDOT": 0}, "tle": {"line1": "1 60133U 24119A   25343.26008411 -.00000246  00000+0  00000+0 0  9990", "line2": "2 60133   0.0318 187.6725 0001360 117.0797 151.9501  1.00271382  5062"}}, "geometry": {"type": "Point", "coordinates": [-133.4850511953088, -0.012935104775147971]}}, {"type": "Feature", "properties": {"norad_id": 65815, "name": "FENGYUN 3H", "group": "weather", "lat": -42.843712759213226, "lon": -68.5983138567258, "alt_km": 832.535526091965, "timestamp": "2025-12-09T14:52:25.809550+00:00", "meta": {"OBJECT_NAME": "FENGYUN 3H", "OBJECT_ID": "2025-219A", "EPOCH": "2025-12-09T06:37:19.495776", "MEAN_MOTION": 14.19903273, "ECCENTRICITY": 6.057e-05, "INCLINATION": 98.658, "RA_OF_ASC_NODE": 282.9417, "ARG_OF_PERICENTER": 84.6333, "MEAN_ANOMALY": 275.4913, "EPHEMERIS_TYPE": 0, "CLASSIFICATION_TYPE": "U", "NORAD_CAT_ID": 65815, "ELEMENT_SET_NO": 999, "REV_AT_EPOCH": 1043, "BSTAR": 0.00011695347, "MEAN_MOTION_DOT": 2.05e-06, "MEAN_MOTION_DDOT": 0}, "tle": {"line1": "1 65815U 25219A   25343.27592009  .00000205  00000+0  11695-3 0  9996", "line2": "2 65815  98.6580 282.9417 0000605  84.6333 275.4913 14.19903273 10432"}}, "geometry": {"type": "Point", "coordinates": [-68.5983138567258, -42.843712759213226]}}]}